{
  "type": "FeatureCollection",
  "name": "EDIM Placeholder Locations",
  "properties": {
    "generated_from_run_id": "efe5c56b",
    "feature_count": 54,
    "is_placeholder": true
  },
  "features": [
    {
      "type": "Feature",
      "properties": {
        "location_id": "AGO",
        "display_name": "AGO",
        "mario_region": "Central_Africa",
        "placeholder_geometry": true,
        "placeholder_note": "Synthetic placeholder polygon. Replace with real boundaries."
      },
      "geometry": {
        "type": "Polygon",
        "coordinates": [
          [
            [
              -17.4,
              27.1
            ],
            [
              -11.4,
              27.1
            ],
            [
              -11.4,
              35.4
            ],
            [
              -17.4,
              35.4
            ],
            [
              -17.4,
              27.1
            ]
          ]
        ]
      }
    },
    {
      "type": "Feature",
      "properties": {
        "location_id": "BDI",
        "display_name": "BDI",
        "mario_region": "UNKNOWN",
        "placeholder_geometry": true,
        "placeholder_note": "Synthetic placeholder polygon. Replace with real boundaries."
      },
      "geometry": {
        "type": "Polygon",
        "coordinates": [
          [
            [
              -10.2,
              27.1
            ],
            [
              -4.2,
              27.1
            ],
            [
              -4.2,
              35.4
            ],
            [
              -10.2,
              35.4
            ],
            [
              -10.2,
              27.1
            ]
          ]
        ]
      }
    },
    {
      "type": "Feature",
      "properties": {
        "location_id": "BEN",
        "display_name": "BEN",
        "mario_region": "UNKNOWN",
        "placeholder_geometry": true,
        "placeholder_note": "Synthetic placeholder polygon. Replace with real boundaries."
      },
      "geometry": {
        "type": "Polygon",
        "coordinates": [
          [
            [
              -3.0,
              27.1
            ],
            [
              3.0,
              27.1
            ],
            [
              3.0,
              35.4
            ],
            [
              -3.0,
              35.4
            ],
            [
              -3.0,
              27.1
            ]
          ]
        ]
      }
    },
    {
      "type": "Feature",
      "properties": {
        "location_id": "BFA",
        "display_name": "BFA",
        "mario_region": "UNKNOWN",
        "placeholder_geometry": true,
        "placeholder_note": "Synthetic placeholder polygon. Replace with real boundaries."
      },
      "geometry": {
        "type": "Polygon",
        "coordinates": [
          [
            [
              4.2,
              27.1
            ],
            [
              10.2,
              27.1
            ],
            [
              10.2,
              35.4
            ],
            [
              4.2,
              35.4
            ],
            [
              4.2,
              27.1
            ]
          ]
        ]
      }
    },
    {
      "type": "Feature",
      "properties": {
        "location_id": "BWA",
        "display_name": "BWA",
        "mario_region": "UNKNOWN",
        "placeholder_geometry": true,
        "placeholder_note": "Synthetic placeholder polygon. Replace with real boundaries."
      },
      "geometry": {
        "type": "Polygon",
        "coordinates": [
          [
            [
              11.4,
              27.1
            ],
            [
              17.4,
              27.1
            ],
            [
              17.4,
              35.4
            ],
            [
              11.4,
              35.4
            ],
            [
              11.4,
              27.1
            ]
          ]
        ]
      }
    },
    {
      "type": "Feature",
      "properties": {
        "location_id": "CAF",
        "display_name": "CAF",
        "mario_region": "UNKNOWN",
        "placeholder_geometry": true,
        "placeholder_note": "Synthetic placeholder polygon. Replace with real boundaries."
      },
      "geometry": {
        "type": "Polygon",
        "coordinates": [
          [
            [
              18.6,
              27.1
            ],
            [
              24.6,
              27.1
            ],
            [
              24.6,
              35.4
            ],
            [
              18.6,
              35.4
            ],
            [
              18.6,
              27.1
            ]
          ]
        ]
      }
    },
    {
      "type": "Feature",
      "properties": {
        "location_id": "CIV",
        "display_name": "CIV",
        "mario_region": "UNKNOWN",
        "placeholder_geometry": true,
        "placeholder_note": "Synthetic placeholder polygon. Replace with real boundaries."
      },
      "geometry": {
        "type": "Polygon",
        "coordinates": [
          [
            [
              25.8,
              27.1
            ],
            [
              31.8,
              27.1
            ],
            [
              31.8,
              35.4
            ],
            [
              25.8,
              35.4
            ],
            [
              25.8,
              27.1
            ]
          ]
        ]
      }
    },
    {
      "type": "Feature",
      "properties": {
        "location_id": "CMR",
        "display_name": "CMR",
        "mario_region": "UNKNOWN",
        "placeholder_geometry": true,
        "placeholder_note": "Synthetic placeholder polygon. Replace with real boundaries."
      },
      "geometry": {
        "type": "Polygon",
        "coordinates": [
          [
            [
              33.0,
              27.1
            ],
            [
              39.0,
              27.1
            ],
            [
              39.0,
              35.4
            ],
            [
              33.0,
              35.4
            ],
            [
              33.0,
              27.1
            ]
          ]
        ]
      }
    },
    {
      "type": "Feature",
      "properties": {
        "location_id": "COD",
        "display_name": "COD",
        "mario_region": "UNKNOWN",
        "placeholder_geometry": true,
        "placeholder_note": "Synthetic placeholder polygon. Replace with real boundaries."
      },
      "geometry": {
        "type": "Polygon",
        "coordinates": [
          [
            [
              40.2,
              27.1
            ],
            [
              46.2,
              27.1
            ],
            [
              46.2,
              35.4
            ],
            [
              40.2,
              35.4
            ],
            [
              40.2,
              27.1
            ]
          ]
        ]
      }
    },
    {
      "type": "Feature",
      "properties": {
        "location_id": "COG",
        "display_name": "COG",
        "mario_region": "UNKNOWN",
        "placeholder_geometry": true,
        "placeholder_note": "Synthetic placeholder polygon. Replace with real boundaries."
      },
      "geometry": {
        "type": "Polygon",
        "coordinates": [
          [
            [
              -17.4,
              17.6
            ],
            [
              -11.4,
              17.6
            ],
            [
              -11.4,
              25.9
            ],
            [
              -17.4,
              25.9
            ],
            [
              -17.4,
              17.6
            ]
          ]
        ]
      }
    },
    {
      "type": "Feature",
      "properties": {
        "location_id": "DJI",
        "display_name": "DJI",
        "mario_region": "UNKNOWN",
        "placeholder_geometry": true,
        "placeholder_note": "Synthetic placeholder polygon. Replace with real boundaries."
      },
      "geometry": {
        "type": "Polygon",
        "coordinates": [
          [
            [
              -10.2,
              17.6
            ],
            [
              -4.2,
              17.6
            ],
            [
              -4.2,
              25.9
            ],
            [
              -10.2,
              25.9
            ],
            [
              -10.2,
              17.6
            ]
          ]
        ]
      }
    },
    {
      "type": "Feature",
      "properties": {
        "location_id": "DZA",
        "display_name": "DZA",
        "mario_region": "North_Africa",
        "placeholder_geometry": true,
        "placeholder_note": "Synthetic placeholder polygon. Replace with real boundaries."
      },
      "geometry": {
        "type": "Polygon",
        "coordinates": [
          [
            [
              -3.0,
              17.6
            ],
            [
              3.0,
              17.6
            ],
            [
              3.0,
              25.9
            ],
            [
              -3.0,
              25.9
            ],
            [
              -3.0,
              17.6
            ]
          ]
        ]
      }
    },
    {
      "type": "Feature",
      "properties": {
        "location_id": "EGY",
        "display_name": "EGY",
        "mario_region": "East_Africa",
        "placeholder_geometry": true,
        "placeholder_note": "Synthetic placeholder polygon. Replace with real boundaries."
      },
      "geometry": {
        "type": "Polygon",
        "coordinates": [
          [
            [
              4.2,
              17.6
            ],
            [
              10.2,
              17.6
            ],
            [
              10.2,
              25.9
            ],
            [
              4.2,
              25.9
            ],
            [
              4.2,
              17.6
            ]
          ]
        ]
      }
    },
    {
      "type": "Feature",
      "properties": {
        "location_id": "ERI",
        "display_name": "ERI",
        "mario_region": "UNKNOWN",
        "placeholder_geometry": true,
        "placeholder_note": "Synthetic placeholder polygon. Replace with real boundaries."
      },
      "geometry": {
        "type": "Polygon",
        "coordinates": [
          [
            [
              11.4,
              17.6
            ],
            [
              17.4,
              17.6
            ],
            [
              17.4,
              25.9
            ],
            [
              11.4,
              25.9
            ],
            [
              11.4,
              17.6
            ]
          ]
        ]
      }
    },
    {
      "type": "Feature",
      "properties": {
        "location_id": "ETH",
        "display_name": "ETH",
        "mario_region": "UNKNOWN",
        "placeholder_geometry": true,
        "placeholder_note": "Synthetic placeholder polygon. Replace with real boundaries."
      },
      "geometry": {
        "type": "Polygon",
        "coordinates": [
          [
            [
              18.6,
              17.6
            ],
            [
              24.6,
              17.6
            ],
            [
              24.6,
              25.9
            ],
            [
              18.6,
              25.9
            ],
            [
              18.6,
              17.6
            ]
          ]
        ]
      }
    },
    {
      "type": "Feature",
      "properties": {
        "location_id": "GAB",
        "display_name": "GAB",
        "mario_region": "UNKNOWN",
        "placeholder_geometry": true,
        "placeholder_note": "Synthetic placeholder polygon. Replace with real boundaries."
      },
      "geometry": {
        "type": "Polygon",
        "coordinates": [
          [
            [
              25.8,
              17.6
            ],
            [
              31.8,
              17.6
            ],
            [
              31.8,
              25.9
            ],
            [
              25.8,
              25.9
            ],
            [
              25.8,
              17.6
            ]
          ]
        ]
      }
    },
    {
      "type": "Feature",
      "properties": {
        "location_id": "GHA",
        "display_name": "GHA",
        "mario_region": "UNKNOWN",
        "placeholder_geometry": true,
        "placeholder_note": "Synthetic placeholder polygon. Replace with real boundaries."
      },
      "geometry": {
        "type": "Polygon",
        "coordinates": [
          [
            [
              33.0,
              17.6
            ],
            [
              39.0,
              17.6
            ],
            [
              39.0,
              25.9
            ],
            [
              33.0,
              25.9
            ],
            [
              33.0,
              17.6
            ]
          ]
        ]
      }
    },
    {
      "type": "Feature",
      "properties": {
        "location_id": "GIN",
        "display_name": "GIN",
        "mario_region": "UNKNOWN",
        "placeholder_geometry": true,
        "placeholder_note": "Synthetic placeholder polygon. Replace with real boundaries."
      },
      "geometry": {
        "type": "Polygon",
        "coordinates": [
          [
            [
              40.2,
              17.6
            ],
            [
              46.2,
              17.6
            ],
            [
              46.2,
              25.9
            ],
            [
              40.2,
              25.9
            ],
            [
              40.2,
              17.6
            ]
          ]
        ]
      }
    },
    {
      "type": "Feature",
      "properties": {
        "location_id": "GMB",
        "display_name": "GMB",
        "mario_region": "UNKNOWN",
        "placeholder_geometry": true,
        "placeholder_note": "Synthetic placeholder polygon. Replace with real boundaries."
      },
      "geometry": {
        "type": "Polygon",
        "coordinates": [
          [
            [
              -17.4,
              8.1
            ],
            [
              -11.4,
              8.1
            ],
            [
              -11.4,
              16.4
            ],
            [
              -17.4,
              16.4
            ],
            [
              -17.4,
              8.1
            ]
          ]
        ]
      }
    },
    {
      "type": "Feature",
      "properties": {
        "location_id": "GNB",
        "display_name": "GNB",
        "mario_region": "UNKNOWN",
        "placeholder_geometry": true,
        "placeholder_note": "Synthetic placeholder polygon. Replace with real boundaries."
      },
      "geometry": {
        "type": "Polygon",
        "coordinates": [
          [
            [
              -10.2,
              8.1
            ],
            [
              -4.2,
              8.1
            ],
            [
              -4.2,
              16.4
            ],
            [
              -10.2,
              16.4
            ],
            [
              -10.2,
              8.1
            ]
          ]
        ]
      }
    },
    {
      "type": "Feature",
      "properties": {
        "location_id": "GNQ",
        "display_name": "GNQ",
        "mario_region": "UNKNOWN",
        "placeholder_geometry": true,
        "placeholder_note": "Synthetic placeholder polygon. Replace with real boundaries."
      },
      "geometry": {
        "type": "Polygon",
        "coordinates": [
          [
            [
              -3.0,
              8.1
            ],
            [
              3.0,
              8.1
            ],
            [
              3.0,
              16.4
            ],
            [
              -3.0,
              16.4
            ],
            [
              -3.0,
              8.1
            ]
          ]
        ]
      }
    },
    {
      "type": "Feature",
      "properties": {
        "location_id": "KEN_CSTR",
        "display_name": "KEN_CSTR",
        "mario_region": "UNKNOWN",
        "placeholder_geometry": true,
        "placeholder_note": "Synthetic placeholder polygon. Replace with real boundaries."
      },
      "geometry": {
        "type": "Polygon",
        "coordinates": [
          [
            [
              4.2,
              8.1
            ],
            [
              10.2,
              8.1
            ],
            [
              10.2,
              16.4
            ],
            [
              4.2,
              16.4
            ],
            [
              4.2,
              8.1
            ]
          ]
        ]
      }
    },
    {
      "type": "Feature",
      "properties": {
        "location_id": "KEN_MTKR",
        "display_name": "KEN_MTKR",
        "mario_region": "UNKNOWN",
        "placeholder_geometry": true,
        "placeholder_note": "Synthetic placeholder polygon. Replace with real boundaries."
      },
      "geometry": {
        "type": "Polygon",
        "coordinates": [
          [
            [
              11.4,
              8.1
            ],
            [
              17.4,
              8.1
            ],
            [
              17.4,
              16.4
            ],
            [
              11.4,
              16.4
            ],
            [
              11.4,
              8.1
            ]
          ]
        ]
      }
    },
    {
      "type": "Feature",
      "properties": {
        "location_id": "KEN_NBOR",
        "display_name": "KEN_NBOR",
        "mario_region": "UNKNOWN",
        "placeholder_geometry": true,
        "placeholder_note": "Synthetic placeholder polygon. Replace with real boundaries."
      },
      "geometry": {
        "type": "Polygon",
        "coordinates": [
          [
            [
              18.6,
              8.1
            ],
            [
              24.6,
              8.1
            ],
            [
              24.6,
              16.4
            ],
            [
              18.6,
              16.4
            ],
            [
              18.6,
              8.1
            ]
          ]
        ]
      }
    },
    {
      "type": "Feature",
      "properties": {
        "location_id": "KEN_WSTR",
        "display_name": "KEN_WSTR",
        "mario_region": "UNKNOWN",
        "placeholder_geometry": true,
        "placeholder_note": "Synthetic placeholder polygon. Replace with real boundaries."
      },
      "geometry": {
        "type": "Polygon",
        "coordinates": [
          [
            [
              25.8,
              8.1
            ],
            [
              31.8,
              8.1
            ],
            [
              31.8,
              16.4
            ],
            [
              25.8,
              16.4
            ],
            [
              25.8,
              8.1
            ]
          ]
        ]
      }
    },
    {
      "type": "Feature",
      "properties": {
        "location_id": "LBR",
        "display_name": "LBR",
        "mario_region": "UNKNOWN",
        "placeholder_geometry": true,
        "placeholder_note": "Synthetic placeholder polygon. Replace with real boundaries."
      },
      "geometry": {
        "type": "Polygon",
        "coordinates": [
          [
            [
              33.0,
              8.1
            ],
            [
              39.0,
              8.1
            ],
            [
              39.0,
              16.4
            ],
            [
              33.0,
              16.4
            ],
            [
              33.0,
              8.1
            ]
          ]
        ]
      }
    },
    {
      "type": "Feature",
      "properties": {
        "location_id": "LBY",
        "display_name": "LBY",
        "mario_region": "UNKNOWN",
        "placeholder_geometry": true,
        "placeholder_note": "Synthetic placeholder polygon. Replace with real boundaries."
      },
      "geometry": {
        "type": "Polygon",
        "coordinates": [
          [
            [
              40.2,
              8.1
            ],
            [
              46.2,
              8.1
            ],
            [
              46.2,
              16.4
            ],
            [
              40.2,
              16.4
            ],
            [
              40.2,
              8.1
            ]
          ]
        ]
      }
    },
    {
      "type": "Feature",
      "properties": {
        "location_id": "LSO",
        "display_name": "LSO",
        "mario_region": "UNKNOWN",
        "placeholder_geometry": true,
        "placeholder_note": "Synthetic placeholder polygon. Replace with real boundaries."
      },
      "geometry": {
        "type": "Polygon",
        "coordinates": [
          [
            [
              -17.4,
              -1.4
            ],
            [
              -11.4,
              -1.4
            ],
            [
              -11.4,
              6.9
            ],
            [
              -17.4,
              6.9
            ],
            [
              -17.4,
              -1.4
            ]
          ]
        ]
      }
    },
    {
      "type": "Feature",
      "properties": {
        "location_id": "MAR",
        "display_name": "MAR",
        "mario_region": "UNKNOWN",
        "placeholder_geometry": true,
        "placeholder_note": "Synthetic placeholder polygon. Replace with real boundaries."
      },
      "geometry": {
        "type": "Polygon",
        "coordinates": [
          [
            [
              -10.2,
              -1.4
            ],
            [
              -4.2,
              -1.4
            ],
            [
              -4.2,
              6.9
            ],
            [
              -10.2,
              6.9
            ],
            [
              -10.2,
              -1.4
            ]
          ]
        ]
      }
    },
    {
      "type": "Feature",
      "properties": {
        "location_id": "MLI",
        "display_name": "MLI",
        "mario_region": "UNKNOWN",
        "placeholder_geometry": true,
        "placeholder_note": "Synthetic placeholder polygon. Replace with real boundaries."
      },
      "geometry": {
        "type": "Polygon",
        "coordinates": [
          [
            [
              -3.0,
              -1.4
            ],
            [
              3.0,
              -1.4
            ],
            [
              3.0,
              6.9
            ],
            [
              -3.0,
              6.9
            ],
            [
              -3.0,
              -1.4
            ]
          ]
        ]
      }
    },
    {
      "type": "Feature",
      "properties": {
        "location_id": "MOZ_NC",
        "display_name": "MOZ_NC",
        "mario_region": "UNKNOWN",
        "placeholder_geometry": true,
        "placeholder_note": "Synthetic placeholder polygon. Replace with real boundaries."
      },
      "geometry": {
        "type": "Polygon",
        "coordinates": [
          [
            [
              4.2,
              -1.4
            ],
            [
              10.2,
              -1.4
            ],
            [
              10.2,
              6.9
            ],
            [
              4.2,
              6.9
            ],
            [
              4.2,
              -1.4
            ]
          ]
        ]
      }
    },
    {
      "type": "Feature",
      "properties": {
        "location_id": "MOZ_S",
        "display_name": "MOZ_S",
        "mario_region": "UNKNOWN",
        "placeholder_geometry": true,
        "placeholder_note": "Synthetic placeholder polygon. Replace with real boundaries."
      },
      "geometry": {
        "type": "Polygon",
        "coordinates": [
          [
            [
              11.4,
              -1.4
            ],
            [
              17.4,
              -1.4
            ],
            [
              17.4,
              6.9
            ],
            [
              11.4,
              6.9
            ],
            [
              11.4,
              -1.4
            ]
          ]
        ]
      }
    },
    {
      "type": "Feature",
      "properties": {
        "location_id": "MRT",
        "display_name": "MRT",
        "mario_region": "UNKNOWN",
        "placeholder_geometry": true,
        "placeholder_note": "Synthetic placeholder polygon. Replace with real boundaries."
      },
      "geometry": {
        "type": "Polygon",
        "coordinates": [
          [
            [
              18.6,
              -1.4
            ],
            [
              24.6,
              -1.4
            ],
            [
              24.6,
              6.9
            ],
            [
              18.6,
              6.9
            ],
            [
              18.6,
              -1.4
            ]
          ]
        ]
      }
    },
    {
      "type": "Feature",
      "properties": {
        "location_id": "MWI",
        "display_name": "MWI",
        "mario_region": "UNKNOWN",
        "placeholder_geometry": true,
        "placeholder_note": "Synthetic placeholder polygon. Replace with real boundaries."
      },
      "geometry": {
        "type": "Polygon",
        "coordinates": [
          [
            [
              25.8,
              -1.4
            ],
            [
              31.8,
              -1.4
            ],
            [
              31.8,
              6.9
            ],
            [
              25.8,
              6.9
            ],
            [
              25.8,
              -1.4
            ]
          ]
        ]
      }
    },
    {
      "type": "Feature",
      "properties": {
        "location_id": "NAM",
        "display_name": "NAM",
        "mario_region": "UNKNOWN",
        "placeholder_geometry": true,
        "placeholder_note": "Synthetic placeholder polygon. Replace with real boundaries."
      },
      "geometry": {
        "type": "Polygon",
        "coordinates": [
          [
            [
              33.0,
              -1.4
            ],
            [
              39.0,
              -1.4
            ],
            [
              39.0,
              6.9
            ],
            [
              33.0,
              6.9
            ],
            [
              33.0,
              -1.4
            ]
          ]
        ]
      }
    },
    {
      "type": "Feature",
      "properties": {
        "location_id": "NER",
        "display_name": "NER",
        "mario_region": "UNKNOWN",
        "placeholder_geometry": true,
        "placeholder_note": "Synthetic placeholder polygon. Replace with real boundaries."
      },
      "geometry": {
        "type": "Polygon",
        "coordinates": [
          [
            [
              40.2,
              -1.4
            ],
            [
              46.2,
              -1.4
            ],
            [
              46.2,
              6.9
            ],
            [
              40.2,
              6.9
            ],
            [
              40.2,
              -1.4
            ]
          ]
        ]
      }
    },
    {
      "type": "Feature",
      "properties": {
        "location_id": "NGA_CNW",
        "display_name": "NGA_CNW",
        "mario_region": "West_Africa",
        "placeholder_geometry": true,
        "placeholder_note": "Synthetic placeholder polygon. Replace with real boundaries."
      },
      "geometry": {
        "type": "Polygon",
        "coordinates": [
          [
            [
              -17.4,
              -10.9
            ],
            [
              -11.4,
              -10.9
            ],
            [
              -11.4,
              -2.6
            ],
            [
              -17.4,
              -2.6
            ],
            [
              -17.4,
              -10.9
            ]
          ]
        ]
      }
    },
    {
      "type": "Feature",
      "properties": {
        "location_id": "NGA_E",
        "display_name": "NGA_E",
        "mario_region": "UNKNOWN",
        "placeholder_geometry": true,
        "placeholder_note": "Synthetic placeholder polygon. Replace with real boundaries."
      },
      "geometry": {
        "type": "Polygon",
        "coordinates": [
          [
            [
              -10.2,
              -10.9
            ],
            [
              -4.2,
              -10.9
            ],
            [
              -4.2,
              -2.6
            ],
            [
              -10.2,
              -2.6
            ],
            [
              -10.2,
              -10.9
            ]
          ]
        ]
      }
    },
    {
      "type": "Feature",
      "properties": {
        "location_id": "NGA_S",
        "display_name": "NGA_S",
        "mario_region": "UNKNOWN",
        "placeholder_geometry": true,
        "placeholder_note": "Synthetic placeholder polygon. Replace with real boundaries."
      },
      "geometry": {
        "type": "Polygon",
        "coordinates": [
          [
            [
              -3.0,
              -10.9
            ],
            [
              3.0,
              -10.9
            ],
            [
              3.0,
              -2.6
            ],
            [
              -3.0,
              -2.6
            ],
            [
              -3.0,
              -10.9
            ]
          ]
        ]
      }
    },
    {
      "type": "Feature",
      "properties": {
        "location_id": "NGA_W",
        "display_name": "NGA_W",
        "mario_region": "UNKNOWN",
        "placeholder_geometry": true,
        "placeholder_note": "Synthetic placeholder polygon. Replace with real boundaries."
      },
      "geometry": {
        "type": "Polygon",
        "coordinates": [
          [
            [
              4.2,
              -10.9
            ],
            [
              10.2,
              -10.9
            ],
            [
              10.2,
              -2.6
            ],
            [
              4.2,
              -2.6
            ],
            [
              4.2,
              -10.9
            ]
          ]
        ]
      }
    },
    {
      "type": "Feature",
      "properties": {
        "location_id": "RWA",
        "display_name": "RWA",
        "mario_region": "UNKNOWN",
        "placeholder_geometry": true,
        "placeholder_note": "Synthetic placeholder polygon. Replace with real boundaries."
      },
      "geometry": {
        "type": "Polygon",
        "coordinates": [
          [
            [
              11.4,
              -10.9
            ],
            [
              17.4,
              -10.9
            ],
            [
              17.4,
              -2.6
            ],
            [
              11.4,
              -2.6
            ],
            [
              11.4,
              -10.9
            ]
          ]
        ]
      }
    },
    {
      "type": "Feature",
      "properties": {
        "location_id": "SDN",
        "display_name": "SDN",
        "mario_region": "UNKNOWN",
        "placeholder_geometry": true,
        "placeholder_note": "Synthetic placeholder polygon. Replace with real boundaries."
      },
      "geometry": {
        "type": "Polygon",
        "coordinates": [
          [
            [
              18.6,
              -10.9
            ],
            [
              24.6,
              -10.9
            ],
            [
              24.6,
              -2.6
            ],
            [
              18.6,
              -2.6
            ],
            [
              18.6,
              -10.9
            ]
          ]
        ]
      }
    },
    {
      "type": "Feature",
      "properties": {
        "location_id": "SEN",
        "display_name": "SEN",
        "mario_region": "UNKNOWN",
        "placeholder_geometry": true,
        "placeholder_note": "Synthetic placeholder polygon. Replace with real boundaries."
      },
      "geometry": {
        "type": "Polygon",
        "coordinates": [
          [
            [
              25.8,
              -10.9
            ],
            [
              31.8,
              -10.9
            ],
            [
              31.8,
              -2.6
            ],
            [
              25.8,
              -2.6
            ],
            [
              25.8,
              -10.9
            ]
          ]
        ]
      }
    },
    {
      "type": "Feature",
      "properties": {
        "location_id": "SLE",
        "display_name": "SLE",
        "mario_region": "UNKNOWN",
        "placeholder_geometry": true,
        "placeholder_note": "Synthetic placeholder polygon. Replace with real boundaries."
      },
      "geometry": {
        "type": "Polygon",
        "coordinates": [
          [
            [
              33.0,
              -10.9
            ],
            [
              39.0,
              -10.9
            ],
            [
              39.0,
              -2.6
            ],
            [
              33.0,
              -2.6
            ],
            [
              33.0,
              -10.9
            ]
          ]
        ]
      }
    },
    {
      "type": "Feature",
      "properties": {
        "location_id": "SSD",
        "display_name": "SSD",
        "mario_region": "UNKNOWN",
        "placeholder_geometry": true,
        "placeholder_note": "Synthetic placeholder polygon. Replace with real boundaries."
      },
      "geometry": {
        "type": "Polygon",
        "coordinates": [
          [
            [
              40.2,
              -10.9
            ],
            [
              46.2,
              -10.9
            ],
            [
              46.2,
              -2.6
            ],
            [
              40.2,
              -2.6
            ],
            [
              40.2,
              -10.9
            ]
          ]
        ]
      }
    },
    {
      "type": "Feature",
      "properties": {
        "location_id": "SWZ",
        "display_name": "SWZ",
        "mario_region": "UNKNOWN",
        "placeholder_geometry": true,
        "placeholder_note": "Synthetic placeholder polygon. Replace with real boundaries."
      },
      "geometry": {
        "type": "Polygon",
        "coordinates": [
          [
            [
              -17.4,
              -20.4
            ],
            [
              -11.4,
              -20.4
            ],
            [
              -11.4,
              -12.1
            ],
            [
              -17.4,
              -12.1
            ],
            [
              -17.4,
              -20.4
            ]
          ]
        ]
      }
    },
    {
      "type": "Feature",
      "properties": {
        "location_id": "TCD",
        "display_name": "TCD",
        "mario_region": "UNKNOWN",
        "placeholder_geometry": true,
        "placeholder_note": "Synthetic placeholder polygon. Replace with real boundaries."
      },
      "geometry": {
        "type": "Polygon",
        "coordinates": [
          [
            [
              -10.2,
              -20.4
            ],
            [
              -4.2,
              -20.4
            ],
            [
              -4.2,
              -12.1
            ],
            [
              -10.2,
              -12.1
            ],
            [
              -10.2,
              -20.4
            ]
          ]
        ]
      }
    },
    {
      "type": "Feature",
      "properties": {
        "location_id": "TGO",
        "display_name": "TGO",
        "mario_region": "UNKNOWN",
        "placeholder_geometry": true,
        "placeholder_note": "Synthetic placeholder polygon. Replace with real boundaries."
      },
      "geometry": {
        "type": "Polygon",
        "coordinates": [
          [
            [
              -3.0,
              -20.4
            ],
            [
              3.0,
              -20.4
            ],
            [
              3.0,
              -12.1
            ],
            [
              -3.0,
              -12.1
            ],
            [
              -3.0,
              -20.4
            ]
          ]
        ]
      }
    },
    {
      "type": "Feature",
      "properties": {
        "location_id": "TUN",
        "display_name": "TUN",
        "mario_region": "UNKNOWN",
        "placeholder_geometry": true,
        "placeholder_note": "Synthetic placeholder polygon. Replace with real boundaries."
      },
      "geometry": {
        "type": "Polygon",
        "coordinates": [
          [
            [
              4.2,
              -20.4
            ],
            [
              10.2,
              -20.4
            ],
            [
              10.2,
              -12.1
            ],
            [
              4.2,
              -12.1
            ],
            [
              4.2,
              -20.4
            ]
          ]
        ]
      }
    },
    {
      "type": "Feature",
      "properties": {
        "location_id": "TZA",
        "display_name": "TZA",
        "mario_region": "UNKNOWN",
        "placeholder_geometry": true,
        "placeholder_note": "Synthetic placeholder polygon. Replace with real boundaries."
      },
      "geometry": {
        "type": "Polygon",
        "coordinates": [
          [
            [
              11.4,
              -20.4
            ],
            [
              17.4,
              -20.4
            ],
            [
              17.4,
              -12.1
            ],
            [
              11.4,
              -12.1
            ],
            [
              11.4,
              -20.4
            ]
          ]
        ]
      }
    },
    {
      "type": "Feature",
      "properties": {
        "location_id": "UGA",
        "display_name": "UGA",
        "mario_region": "UNKNOWN",
        "placeholder_geometry": true,
        "placeholder_note": "Synthetic placeholder polygon. Replace with real boundaries."
      },
      "geometry": {
        "type": "Polygon",
        "coordinates": [
          [
            [
              18.6,
              -20.4
            ],
            [
              24.6,
              -20.4
            ],
            [
              24.6,
              -12.1
            ],
            [
              18.6,
              -12.1
            ],
            [
              18.6,
              -20.4
            ]
          ]
        ]
      }
    },
    {
      "type": "Feature",
      "properties": {
        "location_id": "ZAF",
        "display_name": "ZAF",
        "mario_region": "Southern_Africa",
        "placeholder_geometry": true,
        "placeholder_note": "Synthetic placeholder polygon. Replace with real boundaries."
      },
      "geometry": {
        "type": "Polygon",
        "coordinates": [
          [
            [
              25.8,
              -20.4
            ],
            [
              31.8,
              -20.4
            ],
            [
              31.8,
              -12.1
            ],
            [
              25.8,
              -12.1
            ],
            [
              25.8,
              -20.4
            ]
          ]
        ]
      }
    },
    {
      "type": "Feature",
      "properties": {
        "location_id": "ZMB",
        "display_name": "ZMB",
        "mario_region": "UNKNOWN",
        "placeholder_geometry": true,
        "placeholder_note": "Synthetic placeholder polygon. Replace with real boundaries."
      },
      "geometry": {
        "type": "Polygon",
        "coordinates": [
          [
            [
              33.0,
              -20.4
            ],
            [
              39.0,
              -20.4
            ],
            [
              39.0,
              -12.1
            ],
            [
              33.0,
              -12.1
            ],
            [
              33.0,
              -20.4
            ]
          ]
        ]
      }
    },
    {
      "type": "Feature",
      "properties": {
        "location_id": "ZWE",
        "display_name": "ZWE",
        "mario_region": "UNKNOWN",
        "placeholder_geometry": true,
        "placeholder_note": "Synthetic placeholder polygon. Replace with real boundaries."
      },
      "geometry": {
        "type": "Polygon",
        "coordinates": [
          [
            [
              40.2,
              -20.4
            ],
            [
              46.2,
              -20.4
            ],
            [
              46.2,
              -12.1
            ],
            [
              40.2,
              -12.1
            ],
            [
              40.2,
              -20.4
            ]
          ]
        ]
      }
    }
  ]
}
